[{"OBJECT_NAME":"OCO 2","OBJECT_ID":"2014-035A","EPOCH":"2026-03-04T18:39:32.264928","MEAN_MOTION":14.57087533,"ECCENTRICITY":0.0001167,"INCLINATION":98.2194,"RA_OF_ASC_NODE":6.6944,"ARG_OF_PERICENTER":91.7109,"MEAN_ANOMALY":268.4223,"EPHEMERIS_TYPE":0,"CLASSIFICATION_TYPE":"U","NORAD_CAT_ID":40059,"ELEMENT_SET_NO":999,"REV_AT_EPOCH":62084,"BSTAR":0.00018822,"MEAN_MOTION_DOT":8.02e-6,"MEAN_MOTION_DDOT":0},{"OBJECT_NAME":"BRITE-PL2 (HEWELIUSZ)","OBJECT_ID":"2014-049B","EPOCH":"2026-03-04T17:13:08.690016","MEAN_MOTION":14.94150369,"ECCENTRICITY":0.0015558,"INCLINATION":97.8983,"RA_OF_ASC_NODE":175.0192,"ARG_OF_PERICENTER":96.6588,"MEAN_ANOMALY":263.6403,"EPHEMERIS_TYPE":0,"CLASSIFICATION_TYPE":"U","NORAD_CAT_ID":40119,"ELEMENT_SET_NO":999,"REV_AT_EPOCH":62584,"BSTAR":0.00037746,"MEAN_MOTION_DOT":3.99e-5,"MEAN_MOTION_DDOT":0},{"OBJECT_NAME":"MMS 1","OBJECT_ID":"2015-011A","EPOCH":"2026-03-04T22:00:01.999584","MEAN_MOTION":0.28322917,"ECCENTRICITY":0.8412584,"INCLINATION":70.7316,"RA_OF_ASC_NODE":350.2264,"ARG_OF_PERICENTER":165.236,"MEAN_ANOMALY":102.9657,"EPHEMERIS_TYPE":0,"CLASSIFICATION_TYPE":"U","NORAD_CAT_ID":40482,"ELEMENT_SET_NO":999,"REV_AT_EPOCH":133,"BSTAR":0,"MEAN_MOTION_DOT":-1.913e-5,"MEAN_MOTION_DDOT":0},{"OBJECT_NAME":"MMS 2","OBJECT_ID":"2015-011B","EPOCH":"2026-03-04T22:00:01.999584","MEAN_MOTION":0.28322922,"ECCENTRICITY":0.8413315,"INCLINATION":70.7319,"RA_OF_ASC_NODE":350.2285,"ARG_OF_PERICENTER":165.2421,"MEAN_ANOMALY":102.9492,"EPHEMERIS_TYPE":0,"CLASSIFICATION_TYPE":"U","NORAD_CAT_ID":40483,"ELEMENT_SET_NO":999,"REV_AT_EPOCH":133,"BSTAR":0,"MEAN_MOTION_DOT":-1.913e-5,"MEAN_MOTION_DDOT":0},{"OBJECT_NAME":"MMS 3","OBJECT_ID":"2015-011C","EPOCH":"2026-03-04T22:00:01.999584","MEAN_MOTION":0.2832289,"ECCENTRICITY":0.84126,"INCLINATION":70.7342,"RA_OF_ASC_NODE":350.2332,"ARG_OF_PERICENTER":165.2363,"MEAN_ANOMALY":102.9578,"EPHEMERIS_TYPE":0,"CLASSIFICATION_TYPE":"U","NORAD_CAT_ID":40484,"ELEMENT_SET_NO":999,"REV_AT_EPOCH":133,"BSTAR":0,"MEAN_MOTION_DOT":-1.913e-5,"MEAN_MOTION_DDOT":0},{"OBJECT_NAME":"MMS 4","OBJECT_ID":"2015-011D","EPOCH":"2026-03-04T22:00:01.999584","MEAN_MOTION":0.28322889,"ECCENTRICITY":0.8412105,"INCLINATION":70.7324,"RA_OF_ASC_NODE":350.2283,"ARG_OF_PERICENTER":165.2436,"MEAN_ANOMALY":102.9434,"EPHEMERIS_TYPE":0,"CLASSIFICATION_TYPE":"U","NORAD_CAT_ID":40485,"ELEMENT_SET_NO":999,"REV_AT_EPOCH":133,"BSTAR":0,"MEAN_MOTION_DOT":-1.913e-5,"MEAN_MOTION_DDOT":0},{"OBJECT_NAME":"ASTROSAT","OBJECT_ID":"2015-052A","EPOCH":"2026-03-04T12:59:34.760256","MEAN_MOTION":14.82281738,"ECCENTRICITY":0.0008304,"INCLINATION":5.9956,"RA_OF_ASC_NODE":188.487,"ARG_OF_PERICENTER":336.9081,"MEAN_ANOMALY":23.0673,"EPHEMERIS_TYPE":0,"CLASSIFICATION_TYPE":"U","NORAD_CAT_ID":40930,"ELEMENT_SET_NO":999,"REV_AT_EPOCH":56427,"BSTAR":0.00023116,"MEAN_MOTION_DOT":2.563e-5,"MEAN_MOTION_DDOT":0},{"OBJECT_NAME":"DAMPE","OBJECT_ID":"2015-078A","EPOCH":"2026-03-04T19:57:18.504288","MEAN_MOTION":15.30476265,"ECCENTRICITY":0.0013944,"INCLINATION":97.4576,"RA_OF_ASC_NODE":68.7976,"ARG_OF_PERICENTER":86.5013,"MEAN_ANOMALY":273.7822,"EPHEMERIS_TYPE":0,"CLASSIFICATION_TYPE":"U","NORAD_CAT_ID":41173,"ELEMENT_SET_NO":999,"REV_AT_EPOCH":56858,"BSTAR":5.7288e-5,"MEAN_MOTION_DOT":1.614e-5,"MEAN_MOTION_DDOT":0},{"OBJECT_NAME":"PISAT","OBJECT_ID":"2016-059B","EPOCH":"2026-03-04T12:16:27.621984","MEAN_MOTION":14.68758686,"ECCENTRICITY":0.0029129,"INCLINATION":97.8189,"RA_OF_ASC_NODE":68.4778,"ARG_OF_PERICENTER":177.1121,"MEAN_ANOMALY":183.0258,"EPHEMERIS_TYPE":0,"CLASSIFICATION_TYPE":"U","NORAD_CAT_ID":41784,"ELEMENT_SET_NO":999,"REV_AT_EPOCH":50437,"BSTAR":0.00026895,"MEAN_MOTION_DOT":1.531e-5,"MEAN_MOTION_DDOT":0},{"OBJECT_NAME":"HXMT (HUIYAN)","OBJECT_ID":"2017-034A","EPOCH":"2026-03-04T20:10:46.993152","MEAN_MOTION":15.17385045,"ECCENTRICITY":0.0032437,"INCLINATION":43.0151,"RA_OF_ASC_NODE":43.6284,"ARG_OF_PERICENTER":206.3154,"MEAN_ANOMALY":153.6047,"EPHEMERIS_TYPE":0,"CLASSIFICATION_TYPE":"U","NORAD_CAT_ID":42758,"ELEMENT_SET_NO":999,"REV_AT_EPOCH":48180,"BSTAR":0.00036894,"MEAN_MOTION_DOT":7.372e-5,"MEAN_MOTION_DDOT":0},{"OBJECT_NAME":"FLYING LAPTOP","OBJECT_ID":"2017-042G","EPOCH":"2026-03-04T20:14:16.645344","MEAN_MOTION":15.00479867,"ECCENTRICITY":0.0018665,"INCLINATION":97.4254,"RA_OF_ASC_NODE":223.7338,"ARG_OF_PERICENTER":111.1672,"MEAN_ANOMALY":249.1549,"EPHEMERIS_TYPE":0,"CLASSIFICATION_TYPE":"U","NORAD_CAT_ID":42831,"ELEMENT_SET_NO":999,"REV_AT_EPOCH":47080,"BSTAR":0.0004123,"MEAN_MOTION_DOT":5.155e-5,"MEAN_MOTION_DDOT":0},{"OBJECT_NAME":"ZHANGHENG 1-01 (CSES-1)","OBJECT_ID":"2018-015C","EPOCH":"2026-03-04T20:27:44.493984","MEAN_MOTION":15.20907748,"ECCENTRICITY":0.0014797,"INCLINATION":97.6744,"RA_OF_ASC_NODE":227.4941,"ARG_OF_PERICENTER":262.5843,"MEAN_ANOMALY":97.371,"EPHEMERIS_TYPE":0,"CLASSIFICATION_TYPE":"U","NORAD_CAT_ID":43194,"ELEMENT_SET_NO":999,"REV_AT_EPOCH":44878,"BSTAR":0.00061511,"MEAN_MOTION_DOT":0.00013583,"MEAN_MOTION_DDOT":0},{"OBJECT_NAME":"SALSAT","OBJECT_ID":"2020-068K","EPOCH":"2026-03-04T12:00:02.662848","MEAN_MOTION":15.28060764,"ECCENTRICITY":0.00086882,"INCLINATION":97.8848,"RA_OF_ASC_NODE":60.3287,"ARG_OF_PERICENTER":318.7431,"MEAN_ANOMALY":41.3149,"EPHEMERIS_TYPE":0,"CLASSIFICATION_TYPE":"U","NORAD_CAT_ID":46495,"ELEMENT_SET_NO":999,"REV_AT_EPOCH":29936,"BSTAR":0.00053709432,"MEAN_MOTION_DOT":0.00014646,"MEAN_MOTION_DDOT":0},{"OBJECT_NAME":"IXPE","OBJECT_ID":"2021-121A","EPOCH":"2026-03-04T20:00:03.000384","MEAN_MOTION":15.09131497,"ECCENTRICITY":0.0007617,"INCLINATION":0.2309,"RA_OF_ASC_NODE":26.2234,"ARG_OF_PERICENTER":301.959,"MEAN_ANOMALY":67.5177,"EPHEMERIS_TYPE":0,"CLASSIFICATION_TYPE":"U","NORAD_CAT_ID":49954,"ELEMENT_SET_NO":999,"REV_AT_EPOCH":581,"BSTAR":0.0014884,"MEAN_MOTION_DOT":0.00025345,"MEAN_MOTION_DDOT":0}]
