OCO 2                   
1 40059U 14035A   26063.77745677  .00000802  00000+0  18822-3 0  9991
2 40059  98.2194   6.6944 0001167  91.7109 268.4223 14.57087533620844
BRITE-PL2 (HEWELIUSZ)   
1 40119U 14049B   26063.71746169  .00003990  00000+0  37746-3 0  9991
2 40119  97.8983 175.0192 0015558  96.6588 263.6403 14.94150369625843
MMS 1                   
1 40482U 15011A   26063.91668981 -.00001913  00000+0  00000+0 0  9994
2 40482  70.7316 350.2264 8412584 165.2360 102.9657  0.28322917  1332
MMS 2                   
1 40483U 15011B   26063.91668981 -.00001913  00000+0  00000+0 0  9995
2 40483  70.7319 350.2285 8413315 165.2421 102.9492  0.28322922  1333
MMS 3                   
1 40484U 15011C   26063.91668981 -.00001913  00000+0  00000+0 0  9996
2 40484  70.7342 350.2332 8412600 165.2363 102.9578  0.28322890  1333
MMS 4                   
1 40485U 15011D   26063.91668981 -.00001913  00000+0  00000+0 0  9997
2 40485  70.7324 350.2283 8412105 165.2436 102.9434  0.28322889  1339
ASTROSAT                
1 40930U 15052A   26063.54137454  .00002563  00000+0  23116-3 0  9990
2 40930   5.9956 188.4870 0008304 336.9081  23.0673 14.82281738564272
DAMPE                   
1 41173U 15078A   26063.83146417  .00001614  00000+0  57288-4 0  9993
2 41173  97.4576  68.7976 0013944  86.5013 273.7822 15.30476265568585
PISAT                   
1 41784U 16059B   26063.51143081  .00001531  00000+0  26895-3 0  9997
2 41784  97.8189  68.4778 0029129 177.1121 183.0258 14.68758686504376
HXMT (HUIYAN)           
1 42758U 17034A   26063.84082168  .00007372  00000+0  36894-3 0  9996
2 42758  43.0151  43.6284 0032437 206.3154 153.6047 15.17385045481805
FLYING LAPTOP           
1 42831U 17042G   26063.84324821  .00005155  00000+0  41230-3 0  9999
2 42831  97.4254 223.7338 0018665 111.1672 249.1549 15.00479867470804
ZHANGHENG 1-01 (CSES-1) 
1 43194U 18015C   26063.85259831  .00013583  00000+0  61511-3 0  9990
2 43194  97.6744 227.4941 0014797 262.5843  97.3710 15.20907748448788
SALSAT                  
1 46495U 20068K   26063.50003082  .00014646  00000+0  53709-3 0  9996
2 46495  97.8848  60.3287 0008688 318.7431  41.3149 15.28060764299367
IXPE                    
1 49954U 21121A   26063.83336806  .00025345  00000+0  14884-2 0  9997
2 49954   0.2309  26.2234 0007617 301.9590  67.5177 15.09131497  5811
